{"type":"FeatureCollection","name":"ne_110m_populated_places_simple","crs":{"type":"name","properties":{"name":"urn:ogc:def:crs:OGC:1.3:CRS84"}},"features":[{"type":"Feature","properties":{"scalerank":4,"natscale":50,"labelrank":5,"featurecla":"Admin-0 capital alt","name":"Baguio","namepar":null,"namealt":null,"nameascii":"Baguio City","adm0cap":0,"capalt":1,"capin":null,"worldcity":0,"megacity":0,"sov0name":"Philippines","sov_a3":"PHL","adm0name":"Philippines","adm0_a3":"PHL","adm1name":"Benguet","iso_a2":"PH","note":null,"latitude":16.429991,"longitude":120.569943,"pop_max":447824,"pop_min":272714,"pop_other":164877,"rank_max":10,"rank_min":10,"meganame":null,"ls_name":"Baguio City","min_zoom":5.6,"ne_id":1159149605},"bbox":[120.569943,16.429991,120.569943,16.429991],"geometry":{"type":"Point","coordinates":[120.569943,16.429991]}},{"type":"Feature","properties":{"scalerank":3,"natscale":110,"labelrank":8,"featurecla":"Admin-0 capital","name":"Dili","namepar":null,"namealt":null,"nameascii":"Dili","adm0cap":1,"capalt":0,"capin":null,"worldcity":0,"megacity":0,"sov0name":"East Timor","sov_a3":"TLS","adm0name":"East Timor","adm0_a3":"TLS","adm1name":"Dili","iso_a2":"TL","note":null,"latitude":-8.559388,"longitude":125.579456,"pop_max":234331,"pop_min":193563,"pop_other":55154,"rank_max":10,"rank_min":9,"meganame":null,"ls_name":"Dili","min_zoom":5,"ne_id":1159150577},"bbox":[125.579456,-8.559388,125.579456,-8.559388],"geometry":{"type":"Point","coordinates":[125.579456,-8.559388]}},{"type":"Feature","properties":{"scalerank":3,"natscale":110,"labelrank":8,"featurecla":"Admin-0 capital","name":"Vientiane","namepar":null,"namealt":null,"nameascii":"Vientiane","adm0cap":1,"capalt":0,"capin":null,"worldcity":0,"megacity":0,"sov0name":"Laos","sov_a3":"LAO","adm0name":"Laos","adm0_a3":"LAO","adm1name":"Vientiane [prefecture]","iso_a2":"LA","note":null,"latitude":17.966693,"longitude":102.59998,"pop_max":754000,"pop_min":570348,"pop_other":469811,"rank_max":11,"rank_min":11,"meganame":null,"ls_name":"Vientiane","min_zoom":5,"ne_id":1159150991},"bbox":[102.59998,17.966693,102.59998,17.966693],"geometry":{"type":"Point","coordinates":[102.59998,17.966693]}},{"type":"Feature","properties":{"scalerank":3,"natscale":110,"labelrank":8,"featurecla":"Admin-0 capital","name":"Bandar Seri Begawan","namepar":null,"namealt":null,"nameascii":"Bandar Seri Begawan","adm0cap":1,"capalt":0,"capin":null,"worldcity":0,"megacity":0,"sov0name":"Brunei","sov_a3":"BRN","adm0name":"Brunei","adm0_a3":"BRN","adm1name":"Brunei and Muara","iso_a2":"BN","note":null,"latitude":4.883331,"longitude":114.933284,"pop_max":296500,"pop_min":140000,"pop_other":222513,"rank_max":10,"rank_min":9,"meganame":null,"ls_name":"Bandar Seri Begawan","min_zoom":5,"ne_id":1159151083},"bbox":[114.933284,4.883331,114.933284,4.883331],"geometry":{"type":"Point","coordinates":[114.933284,4.883331]}},{"type":"Feature","properties":{"scalerank":3,"natscale":110,"labelrank":8,"featurecla":"Admin-0 capital","name":"Phnom Penh","namepar":null,"namealt":"Phnum Penh","nameascii":"Phnom Penh","adm0cap":1,"capalt":0,"capin":null,"worldcity":0,"megacity":1,"sov0name":"Cambodia","sov_a3":"KHM","adm0name":"Cambodia","adm0_a3":"KHM","adm1name":"Phnom Penh","iso_a2":"KH","note":null,"latitude":11.551976,"longitude":104.914689,"pop_max":1466000,"pop_min":1466000,"pop_other":1604086,"rank_max":12,"rank_min":12,"meganame":"Phnum Penh","ls_name":"Phnom Penh","min_zoom":5,"ne_id":1159151127},"bbox":[104.914689,11.551976,104.914689,11.551976],"geometry":{"type":"Point","coordinates":[104.914689,11.551976]}},{"type":"Feature","properties":{"scalerank":3,"natscale":110,"labelrank":5,"featurecla":"Admin-0 capital","name":"Naypyidaw","namepar":null,"namealt":"Nay Pyi Taw","nameascii":"Naypyidaw","adm0cap":1,"capalt":0,"capin":null,"worldcity":0,"megacity":1,"sov0name":"Myanmar","sov_a3":"MMR","adm0name":"Myanmar","adm0_a3":"MMR","adm1name":"Mandalay","iso_a2":"MM","note":null,"latitude":19.768503,"longitude":96.116673,"pop_max":930000,"pop_min":194824,"pop_other":0,"rank_max":11,"rank_min":9,"meganame":"Nay Pyi Taw","ls_name":"Naypyidaw","min_zoom":5,"ne_id":1159151179},"bbox":[96.116673,19.768503,96.116673,19.768503],"geometry":{"type":"Point","coordinates":[96.116673,19.768503]}},{"type":"Feature","properties":{"scalerank":2,"natscale":200,"labelrank":5,"featurecla":"Admin-0 capital","name":"Hanoi","namepar":null,"namealt":"H","nameascii":"Hanoi","adm0cap":1,"capalt":0,"capin":null,"worldcity":0,"megacity":1,"sov0name":"Vietnam","sov_a3":"VNM","adm0name":"Vietnam","adm0_a3":"VNM","adm1name":"Thái Nguyên","iso_a2":"VN","note":null,"latitude":21.035273,"longitude":105.848068,"pop_max":4378000,"pop_min":1431270,"pop_other":5466347,"rank_max":12,"rank_min":12,"meganame":"Hh Noi","ls_name":"Hanoi","min_zoom":4,"ne_id":1159151251},"bbox":[105.848068,21.035273,105.848068,21.035273],"geometry":{"type":"Point","coordinates":[105.848068,21.035273]}},{"type":"Feature","properties":{"scalerank":2,"natscale":200,"labelrank":6,"featurecla":"Admin-0 capital","name":"Kuala Lumpur","namepar":null,"namealt":null,"nameascii":"Kuala Lumpur","adm0cap":1,"capalt":0,"capin":"Official and le","worldcity":1,"megacity":1,"sov0name":"Malaysia","sov_a3":"MYS","adm0name":"Malaysia","adm0_a3":"MYS","adm1name":"Selangor","iso_a2":"MY","note":null,"latitude":3.168612,"longitude":101.698037,"pop_max":1448000,"pop_min":1448000,"pop_other":2667990,"rank_max":12,"rank_min":12,"meganame":"Kuala Lumpur","ls_name":"Kuala Lumpur","min_zoom":4,"ne_id":1159151317},"bbox":[101.688699,3.139797,101.688699,3.139797],"geometry":{"type":"Point","coordinates":[101.688699,3.139797]}},{"type":"Feature","properties":{"scalerank":2,"natscale":200,"labelrank":2,"featurecla":"Admin-0 capital","name":"Dhaka","namepar":null,"namealt":null,"nameascii":"Dhaka","adm0cap":1,"capalt":0,"capin":null,"worldcity":0,"megacity":1,"sov0name":"Bangladesh","sov_a3":"BGD","adm0name":"Bangladesh","adm0_a3":"BGD","adm1name":"Dhaka","iso_a2":"BD","note":null,"latitude":23.725006,"longitude":90.406634,"pop_max":12797394,"pop_min":7000940,"pop_other":14995538,"rank_max":14,"rank_min":13,"meganame":"Dhaka","ls_name":"Dhaka","min_zoom":4,"ne_id":1159151467},"bbox":[90.406634,23.725006,90.406634,23.725006],"geometry":{"type":"Point","coordinates":[90.406634,23.725006]}},{"type":"Feature","properties":{"scalerank":2,"natscale":200,"labelrank":5,"featurecla":"Admin-0 capital","name":"Yangon","namepar":"Rangoon","namealt":"Yangon","nameascii":"Rangoon","adm0cap":0,"capalt":0,"capin":"Former capital","worldcity":0,"megacity":1,"sov0name":"Myanmar","sov_a3":"MMR","adm0name":"Myanmar","adm0_a3":"MMR","adm1name":"Yangon","iso_a2":"MM","note":null,"latitude":16.7853,"longitude":96.164732,"pop_max":4088000,"pop_min":3301820,"pop_other":3124090,"rank_max":12,"rank_min":12,"meganame":"Yangon","ls_name":"Rangoon","min_zoom":4,"ne_id":1159151477},"bbox":[96.164732,16.7853,96.164732,16.7853],"geometry":{"type":"Point","coordinates":[96.164732,16.7853]}},{"type":"Feature","properties":{"scalerank":1,"natscale":300,"labelrank":5,"featurecla":"Admin-0 capital","name":"Bangkok","namepar":null,"namealt":"Krung Thep","nameascii":"Bangkok","adm0cap":1,"capalt":0,"capin":null,"worldcity":1,"megacity":1,"sov0name":"Thailand","sov_a3":"THA","adm0name":"Thailand","adm0_a3":"THA","adm1name":"Bangkok Metropolis","iso_a2":"TH","note":null,"latitude":13.751945,"longitude":100.514699,"pop_max":6704000,"pop_min":5104476,"pop_other":5082758,"rank_max":13,"rank_min":13,"meganame":"Krung Thep","ls_name":"Bangkok","min_zoom":3,"ne_id":1159151509},"bbox":[100.514699,13.751945,100.514699,13.751945],"geometry":{"type":"Point","coordinates":[100.514699,13.751945]}},{"type":"Feature","properties":{"scalerank":1,"natscale":300,"labelrank":5,"featurecla":"Admin-0 capital","name":"Manila","namepar":null,"namealt":null,"nameascii":"Manila","adm0cap":1,"capalt":0,"capin":"Official, de fa","worldcity":1,"megacity":1,"sov0name":"Philippines","sov_a3":"PHL","adm0name":"Philippines","adm0_a3":"PHL","adm1name":"Metropolitan Manila","iso_a2":"PH","note":null,"latitude":14.606105,"longitude":120.980271,"pop_max":11100000,"pop_min":3077575,"pop_other":2381280,"rank_max":14,"rank_min":12,"meganame":"Manila","ls_name":"Manila","min_zoom":2.7,"ne_id":1159151525},"bbox":[120.980271,14.606105,120.980271,14.606105],"geometry":{"type":"Point","coordinates":[120.980271,14.606105]}},{"type":"Feature","properties":{"scalerank":1,"natscale":300,"labelrank":8,"featurecla":"Admin-0 capital","name":"Taipei","namepar":null,"namealt":null,"nameascii":"Taipei","adm0cap":1,"capalt":0,"capin":null,"worldcity":1,"megacity":1,"sov0name":"Taiwan","sov_a3":"TWN","adm0name":"Taiwan","adm0_a3":"TWN","adm1name":"Taipei City","iso_a2":"TW","note":null,"latitude":25.035833,"longitude":121.568333,"pop_max":6900273,"pop_min":2618772,"pop_other":5698241,"rank_max":13,"rank_min":12,"meganame":"Taipei","ls_name":"Taipei","min_zoom":3.7,"ne_id":1159151567},"bbox":[121.568333,25.035833,121.568333,25.035833],"geometry":{"type":"Point","coordinates":[121.568333,25.035833]}},{"type":"Feature","properties":{"scalerank":0,"natscale":600,"labelrank":1,"featurecla":"Admin-0 capital","name":"Jakarta","namepar":null,"namealt":null,"nameascii":"Jakarta","adm0cap":1,"capalt":0,"capin":null,"worldcity":1,"megacity":1,"sov0name":"Indonesia","sov_a3":"IDN","adm0name":"Indonesia","adm0_a3":"IDN","adm1name":"Jakarta Raya","iso_a2":"ID","note":null,"latitude":-6.172472,"longitude":106.827492,"pop_max":9125000,"pop_min":8540121,"pop_other":9129613,"rank_max":13,"rank_min":13,"meganame":"Jakarta","ls_name":"Jakarta","min_zoom":2.1,"ne_id":1159151599},"bbox":[106.827492,-6.172472,106.827492,-6.172472],"geometry":{"type":"Point","coordinates":[106.827492,-6.172472]}},{"type":"Feature","properties":{"scalerank":0,"natscale":600,"labelrank":1,"featurecla":"Admin-1 capital","name":"Kolkata","namepar":"Calcutta","namealt":null,"nameascii":"Kolkata","adm0cap":0,"capalt":0,"capin":null,"worldcity":0,"megacity":1,"sov0name":"India","sov_a3":"IND","adm0name":"India","adm0_a3":"IND","adm1name":"West Bengal","iso_a2":"IN","note":null,"latitude":22.496915,"longitude":88.32273,"pop_max":14787000,"pop_min":4631392,"pop_other":7783716,"rank_max":14,"rank_min":12,"meganame":"Kolkata","ls_name":"Calcutta","min_zoom":3.7,"ne_id":1159151617},"bbox":[88.369126,22.569579,88.369126,22.569579],"geometry":{"type":"Point","coordinates":[88.369126,22.569579]}},{"type":"Feature","properties":{"scalerank":0,"natscale":600,"labelrank":0,"featurecla":"Admin-0 capital","name":"Singapore","namepar":null,"namealt":null,"nameascii":"Singapore","adm0cap":1,"capalt":0,"capin":null,"worldcity":1,"megacity":1,"sov0name":"Singapore","sov_a3":"SGP","adm0name":"Singapore","adm0_a3":"SGP","adm1name":null,"iso_a2":"SG","note":null,"latitude":1.294979,"longitude":103.853875,"pop_max":5183700,"pop_min":3289529,"pop_other":3314179,"rank_max":13,"rank_min":12,"meganame":"Singapore","ls_name":"Singapore","min_zoom":2.1,"ne_id":1159151627},"bbox":[103.853875,1.294979,103.853875,1.294979],"geometry":{"type":"Point","coordinates":[103.853875,1.294979]}},{"type":"Feature","properties":{"scalerank":0,"natscale":600,"labelrank":0,"featurecla":"Admin-0 region capital","name":"Hong Kong","namepar":null,"namealt":null,"nameascii":"Hong Kong","adm0cap":0,"capalt":0,"capin":null,"worldcity":1,"megacity":1,"sov0name":"China","sov_a3":"CHN","adm0name":"Hong Kong S.A.R.","adm0_a3":"HKG","adm1name":null,"iso_a2":"HK","note":null,"latitude":22.306927,"longitude":114.183064,"pop_max":7206000,"pop_min":4551579,"pop_other":4549026,"rank_max":13,"rank_min":12,"meganame":"Hong Kong","ls_name":"Hong Kong","min_zoom":3,"ne_id":1159151629},"bbox":[114.183064,22.306927,114.183064,22.306927],"geometry":{"type":"Point","coordinates":[114.183064,22.306927]}}],"bbox":[-175.2205645,-41.2920679923151,179.2166471,64.1434594631703]}